[{"OBJECT_NAME":"STARLINK-2453","OBJECT_ID":"2021-018BL","EPOCH":"2026-03-09T17:10:23.028384","MEAN_MOTION":15.06398266,"ECCENTRICITY":0.00012959,"INCLINATION":53.0568,"RA_OF_ASC_NODE":251.5027,"ARG_OF_PERICENTER":88.8704,"MEAN_ANOMALY":271.2433,"EPHEMERIS_TYPE":0,"CLASSIFICATION_TYPE":"U","NORAD_CAT_ID":47845,"ELEMENT_SET_NO":999,"REV_AT_EPOCH":27660,"BSTAR":4.2929862e-5,"MEAN_MOTION_DOT":3.58e-6,"MEAN_MOTION_DDOT":0},{"OBJECT_NAME":"SL-24 PLAT","OBJECT_ID":"2014-033AR","EPOCH":"2026-03-09T22:47:27.152448","MEAN_MOTION":15.0919716,"ECCENTRICITY":0.00052059,"INCLINATION":98.0981,"RA_OF_ASC_NODE":61.9435,"ARG_OF_PERICENTER":212.2329,"MEAN_ANOMALY":147.8581,"EPHEMERIS_TYPE":0,"CLASSIFICATION_TYPE":"U","NORAD_CAT_ID":40049,"ELEMENT_SET_NO":999,"REV_AT_EPOCH":63724,"BSTAR":0.00046923352,"MEAN_MOTION_DOT":7.393e-5,"MEAN_MOTION_DDOT":0}]
